H1 CPF 01  gfz 2021 06 12 00  6631 terrasarx 
H2 0702601  6201 31698    2021 06 12 00 59 42 2021 06 17 00 00 42   120 1 1  0 0 0
H9
10 0 59378  82782.000000  0    2012778.319  -5539852.946  -3574583.798
10 0 59378  82902.000000  0    1972333.380  -5993597.054  -2774264.888
10 0 59378  83022.000000  0    1890492.656  -6341795.677  -1925244.278
10 0 59378  83142.000000  0    1770559.313  -6577580.751  -1042395.461
10 0 59378  83262.000000  0    1616610.684  -6696117.255   -141217.729
10 0 59378  83382.000000  0    1433392.436  -6694709.591    762443.075
10 0 59378  83502.000000  0    1226197.810  -6572866.357   1652679.416
10 0 59378  83622.000000  0    1000735.414  -6332321.674   2513812.809
10 0 59378  83742.000000  0     762989.305  -5977008.488   3330678.935
10 0 59378  83862.000000  0     519073.458  -5512988.895   4088901.103
10 0 59378  83982.000000  0     275086.283  -4948343.118   4775147.030
10 0 59378  84102.000000  0      36967.869  -4293019.420   5377364.892
10 0 59378  84222.000000  0    -189636.002  -3558648.754   5884993.641
10 0 59378  84342.000000  0    -399499.859  -2758328.290   6289144.636
10 0 59378  84462.000000  0    -587932.912  -1906380.209   6582749.826
10 0 59378  84582.000000  0    -750879.019  -1018092.525   6760678.633
10 0 59378  84702.000000  0    -885000.650   -109443.189   6819823.575
10 0 59378  84822.000000  0    -987745.866    803188.203   6759151.664
10 0 59378  84942.000000  0   -1057396.241   1703315.398   6579721.084
10 0 59378  85062.000000  0   -1093095.256   2574642.592   6284663.775
10 0 59378  85182.000000  0   -1094857.506   3401359.415   5879134.353
10 0 59378  85302.000000  0   -1063558.418   4168429.795   5370225.203
10 0 59378  85422.000000  0   -1000903.709   4861869.121   4766848.572
10 0 59378  85542.000000  0    -909380.691   5469006.594   4079586.474
10 0 59378  85662.000000  0    -792190.513   5978724.682   3320508.089
10 0 59378  85782.000000  0    -653164.945   6381672.393   2502962.116
10 0 59378  85902.000000  0    -496667.646   6670449.562   1641339.328
10 0 59378  86022.000000  0    -327480.982   6839750.159    750813.722
10 0 59378  86142.000000  0    -150683.232   6886465.464   -152931.068
10 0 59378  86262.000000  0      28481.309   6809744.576  -1053986.391
10 0 59378  86382.000000  0     204736.061   6611007.889  -1936509.054
10 0 59379    102.000000  0     372904.545   6293913.118  -2785007.434
10 0 59379    222.000000  0     528039.490   5864278.884  -3584617.868
10 0 59379    342.000000  0     665546.043   5329966.938  -4321367.249
10 0 59379    462.000000  0     781295.716   4700725.728  -4982415.862
10 0 59379    582.000000  0     871728.463   3988000.416  -5556275.844
10 0 59379    702.000000  0     933940.410   3204714.653  -6033002.540
10 0 59379    822.000000  0     965755.312   2365028.630  -6404356.686
10 0 59379    942.000000  0     965779.320   1484079.355  -6663934.548
10 0 59379   1062.000000  0     933437.596    577709.063  -6807267.880
10 0 59379   1182.000000  0     868992.827   -337816.074  -6831893.024
10 0 59379   1302.000000  0     773545.180  -1246092.497  -6737387.969
10 0 59379   1422.000000  0     649013.564  -2130865.376  -6525377.026
10 0 59379   1542.000000  0     498099.440  -2976310.909  -6199506.817
10 0 59379   1662.000000  0     324232.158  -3767315.648  -5765392.465
10 0 59379   1782.000000  0     131497.239  -4489745.449  -5230529.346
10 0 59379   1902.000000  0     -75450.644  -5130699.510  -4604175.026
10 0 59379   2022.000000  0    -291490.076  -5678746.958  -3897200.602
10 0 59379   2142.000000  0    -511148.256  -6124140.323  -3121911.419
10 0 59379   2262.000000  0    -728727.073  -6459000.285  -2291839.903
10 0 59379   2382.000000  0    -938437.399  -6677468.495  -1421513.184
10 0 59379   2502.000000  0   -1134538.162  -6775822.784   -526197.621
10 0 59379   2622.000000  0   -1311476.845  -6752550.485    378373.497
10 0 59379   2742.000000  0   -1464028.080  -6608378.152   1276283.129
10 0 59379   2862.000000  0   -1587426.935  -6346256.636   2151719.194
10 0 59379   2982.000000  0   -1677492.720  -5971300.752   2989262.476
10 0 59379   3102.000000  0   -1730740.253  -5490684.865   3774166.419
10 0 59379   3222.000000  0   -1744475.005  -4913497.741   4492622.410
10 0 59379   3342.000000  0   -1716870.708  -4250561.777   5132004.488
10 0 59379   3462.000000  0   -1647028.640  -3514221.447   5681091.726
10 0 59379   3582.000000  0   -1535015.689  -2718103.115   6130262.833
10 0 59379   3702.000000  0   -1381880.296  -1876855.282   6471658.216
10 0 59379   3822.000000  0   -1189647.511  -1005875.495   6699311.262
10 0 59379   3942.000000  0    -961294.062   -121025.645   6809247.163
10 0 59379   4062.000000  0    -700703.052    761657.141   6799547.251
10 0 59379   4182.000000  0    -412597.846   1626250.445   6670381.108
10 0 59379   4302.000000  0    -102456.343   2457233.497   6424003.832
10 0 59379   4422.000000  0     223592.590   3239765.604   6064718.821
10 0 59379   4542.000000  0     558888.296   3959952.381   5598807.450
10 0 59379   4662.000000  0     896371.793   4605096.184   5034424.957
10 0 59379   4782.000000  0    1228731.772   5163925.918   4381463.655
10 0 59379   4902.000000  0    1548559.264   5626801.294   3651383.872
10 0 59379   5022.000000  0    1848508.781   5985888.504   2857018.584
10 0 59379   5142.000000  0    2121464.346   6235304.068   2012346.305
10 0 59379   5262.000000  0    2360701.178   6371218.990   1132240.684
10 0 59379   5382.000000  0    2560043.053   6391921.167    232201.336
10 0 59379   5502.000000  0    2714009.005   6297834.835   -671926.505
10 0 59379   5622.000000  0    2817947.298   6091498.285  -1564238.986
10 0 59379   5742.000000  0    2868152.957   5777498.929  -2429061.132
10 0 59379   5862.000000  0    2861965.696   5362368.298  -3251228.878
10 0 59379   5982.000000  0    2797845.677   4854438.427  -4016359.685
10 0 59379   6102.000000  0    2675424.911   4263664.597  -4711104.139
10 0 59379   6222.000000  0    2495533.898   3601420.688  -5323374.871
10 0 59379   6342.000000  0    2260204.277   2880272.387  -5842549.433
10 0 59379   6462.000000  0    1972647.442   2113732.761  -6259645.311
10 0 59379   6582.000000  0    1637209.383   1316005.851  -6567463.473
10 0 59379   6702.000000  0    1259304.726    501724.495  -6760701.060
10 0 59379   6822.000000  0     845329.260   -314314.357  -6836034.212
10 0 59379   6942.000000  0     402551.937  -1117413.733  -6792168.574
10 0 59379   7062.000000  0     -61010.119  -1893234.459  -6629857.389
10 0 59379   7182.000000  0    -536732.321  -2628043.595  -6351890.613
10 0 59379   7302.000000  0   -1015539.161  -3308953.814  -5963053.557
10 0 59379   7422.000000  0   -1488072.579  -3924147.440  -5470052.209
10 0 59379   7542.000000  0   -1944870.400  -4463082.500  -4881409.235
10 0 59379   7662.000000  0   -2376552.963  -4916679.066  -4207328.618
10 0 59379   7782.000000  0   -2774014.259  -5277480.079  -3459528.674
10 0 59379   7902.000000  0   -3128612.820  -5539782.911  -2651046.375
10 0 59379   8022.000000  0   -3432358.797  -5699739.456  -1796015.517
10 0 59379   8142.000000  0   -3678093.189  -5755421.608   -909420.997
10 0 59379   8262.000000  0   -3859653.649  -5706848.977     -6832.939
10 0 59379   8382.000000  0   -3972022.013  -5555977.282    895873.039
10 0 59379   8502.000000  0   -4011450.240  -5306647.622   1782803.572
10 0 59379   8622.000000  0   -3975560.717  -4964496.673   2638336.987
10 0 59379   8742.000000  0   -3863418.328  -4536830.772   3447406.531
10 0 59379   8862.000000  0   -3675573.091  -4032468.100   4195772.285
10 0 59379   8982.000000  0   -3414071.861  -3461551.894   4870276.274
10 0 59379   9102.000000  0   -3082439.298  -2835339.793   5459074.208
10 0 59379   9222.000000  0   -2685629.234  -2165976.285   5951840.867
10 0 59379   9342.000000  0   -2229947.685  -1466253.295   6339947.100
10 0 59379   9462.000000  0   -1722949.305   -749362.101   6616607.169
10 0 59379   9582.000000  0   -1173307.432    -28641.064   6776990.682
10 0 59379   9702.000000  0    -590664.411    682671.608   6818299.358
10 0 59379   9822.000000  0      14537.103   1371679.928   6739813.586
10 0 59379   9942.000000  0     631241.033   2026063.705   6542904.533
10 0 59379  10062.000000  0    1247979.554   2634298.872   6231011.172
10 0 59379  10182.000000  0    1853085.362   3185860.360   5809583.743
10 0 59379  10302.000000  0    2434911.807   3671406.745   5285994.877
10 0 59379  10422.000000  0    2982058.617   4082943.297   4669417.116
10 0 59379  10542.000000  0    3483597.816   4413958.242   3970666.318
10 0 59379  10662.000000  0    3929293.559   4659530.527   3202017.027
10 0 59379  10782.000000  0    4309817.212   4816409.667   2376989.362
10 0 59379  10902.000000  0    4616945.403   4883059.132   1510106.194
10 0 59379  11022.000000  0    4843737.707   4859666.508    616634.591
10 0 59379  11142.000000  0    4984693.987   4748119.205   -287691.219
10 0 59379  11262.000000  0    5035879.826   4551943.032  -1186956.944
10 0 59379  11382.000000  0    4995020.950   4276207.932  -2065355.978
10 0 59379  11502.000000  0    4861565.235   3927403.957  -2907474.116
10 0 59379  11622.000000  0    4636709.402   3513290.023  -3698565.040
10 0 59379  11742.000000  0    4323389.801   3042720.342  -4424810.408
10 0 59379  11862.000000  0    3926239.044   2525452.409  -5073559.238
10 0 59379  11982.000000  0    3451510.781   1971941.495  -5633542.444
10 0 59379  12102.000000  0    2906973.865   1393127.502  -6095060.062
10 0 59379  12222.000000  0    2301778.408    800218.568  -6450138.327
10 0 59379  12342.000000  0    1646298.220    204476.002  -6692655.110
10 0 59379  12462.000000  0     951953.567   -382995.428  -6818435.460
10 0 59379  12582.000000  0     231013.333   -951450.579  -6825316.837
10 0 59379  12702.000000  0    -503617.864  -1490695.395  -6713180.216
10 0 59379  12822.000000  0   -1238624.275  -1991264.274  -6483952.180
99
